[{"OBJECT_NAME":"STARLINK-37255","OBJECT_ID":"2026-070N","EPOCH":"2026-04-14T06:00:02.000160","MEAN_MOTION":15.90371448,"ECCENTRICITY":8.615e-5,"INCLINATION":53.1582,"RA_OF_ASC_NODE":206.1784,"ARG_OF_PERICENTER":85.7848,"MEAN_ANOMALY":54.0549,"EPHEMERIS_TYPE":0,"CLASSIFICATION_TYPE":"U","NORAD_CAT_ID":68554,"ELEMENT_SET_NO":999,"REV_AT_EPOCH":309,"BSTAR":-0.0041936346,"MEAN_MOTION_DOT":-0.01153888,"MEAN_MOTION_DDOT":0},{"OBJECT_NAME":"STARLINK-37146","OBJECT_ID":"2026-070P","EPOCH":"2026-04-14T06:00:02.000160","MEAN_MOTION":15.90191985,"ECCENTRICITY":8.297e-5,"INCLINATION":53.1584,"RA_OF_ASC_NODE":206.1933,"ARG_OF_PERICENTER":82.9399,"MEAN_ANOMALY":49.7435,"EPHEMERIS_TYPE":0,"CLASSIFICATION_TYPE":"U","NORAD_CAT_ID":68555,"ELEMENT_SET_NO":999,"REV_AT_EPOCH":309,"BSTAR":-0.0040866696,"MEAN_MOTION_DOT":-0.01118794,"MEAN_MOTION_DDOT":0},{"OBJECT_NAME":"STARLINK-37144","OBJECT_ID":"2026-070Q","EPOCH":"2026-04-14T06:00:02.000160","MEAN_MOTION":15.904455,"ECCENTRICITY":5.431e-5,"INCLINATION":53.1586,"RA_OF_ASC_NODE":206.1621,"ARG_OF_PERICENTER":107.8703,"MEAN_ANOMALY":39.7478,"EPHEMERIS_TYPE":0,"CLASSIFICATION_TYPE":"U","NORAD_CAT_ID":68556,"ELEMENT_SET_NO":999,"REV_AT_EPOCH":309,"BSTAR":-0.0042143559,"MEAN_MOTION_DOT":-0.01162591,"MEAN_MOTION_DDOT":0},{"OBJECT_NAME":"STARLINK-37210","OBJECT_ID":"2026-070R","EPOCH":"2026-04-14T06:00:02.000160","MEAN_MOTION":15.90446512,"ECCENTRICITY":8.333e-5,"INCLINATION":53.1585,"RA_OF_ASC_NODE":206.1707,"ARG_OF_PERICENTER":85.6518,"MEAN_ANOMALY":58.2554,"EPHEMERIS_TYPE":0,"CLASSIFICATION_TYPE":"U","NORAD_CAT_ID":68557,"ELEMENT_SET_NO":999,"REV_AT_EPOCH":309,"BSTAR":-0.0043237726,"MEAN_MOTION_DOT":-0.01189172,"MEAN_MOTION_DDOT":0},{"OBJECT_NAME":"STARLINK-37227","OBJECT_ID":"2026-070S","EPOCH":"2026-04-14T06:00:02.000160","MEAN_MOTION":15.90609616,"ECCENTRICITY":8.516e-5,"INCLINATION":53.1582,"RA_OF_ASC_NODE":206.1548,"ARG_OF_PERICENTER":86.6239,"MEAN_ANOMALY":64.5233,"EPHEMERIS_TYPE":0,"CLASSIFICATION_TYPE":"U","NORAD_CAT_ID":68558,"ELEMENT_SET_NO":999,"REV_AT_EPOCH":309,"BSTAR":-0.0044141594,"MEAN_MOTION_DOT":-0.01219741,"MEAN_MOTION_DDOT":0},{"OBJECT_NAME":"STARLINK-37294","OBJECT_ID":"2026-070T","EPOCH":"2026-04-14T06:00:02.000160","MEAN_MOTION":15.90670639,"ECCENTRICITY":0.00010018,"INCLINATION":53.1586,"RA_OF_ASC_NODE":206.1469,"ARG_OF_PERICENTER":81.3294,"MEAN_ANOMALY":73.7243,"EPHEMERIS_TYPE":0,"CLASSIFICATION_TYPE":"U","NORAD_CAT_ID":68559,"ELEMENT_SET_NO":999,"REV_AT_EPOCH":309,"BSTAR":-0.0044304209,"MEAN_MOTION_DOT":-0.01401887,"MEAN_MOTION_DDOT":0.00055832143},{"OBJECT_NAME":"STARLINK-37291","OBJECT_ID":"2026-070U","EPOCH":"2026-04-14T06:00:02.000160","MEAN_MOTION":15.90749305,"ECCENTRICITY":9.713e-5,"INCLINATION":53.1585,"RA_OF_ASC_NODE":206.1396,"ARG_OF_PERICENTER":105.3344,"MEAN_ANOMALY":53.2609,"EPHEMERIS_TYPE":0,"CLASSIFICATION_TYPE":"U","NORAD_CAT_ID":68560,"ELEMENT_SET_NO":999,"REV_AT_EPOCH":309,"BSTAR":-0.004431058,"MEAN_MOTION_DOT":-0.01407665,"MEAN_MOTION_DDOT":0.00056295075},{"OBJECT_NAME":"STARLINK-37114","OBJECT_ID":"2026-070V","EPOCH":"2026-04-14T06:00:02.000160","MEAN_MOTION":15.90830036,"ECCENTRICITY":9.733e-5,"INCLINATION":53.1585,"RA_OF_ASC_NODE":206.1326,"ARG_OF_PERICENTER":85.3648,"MEAN_ANOMALY":76.6066,"EPHEMERIS_TYPE":0,"CLASSIFICATION_TYPE":"U","NORAD_CAT_ID":68561,"ELEMENT_SET_NO":999,"REV_AT_EPOCH":309,"BSTAR":-0.0044140554,"MEAN_MOTION_DOT":-0.01408064,"MEAN_MOTION_DDOT":0.00056367589},{"OBJECT_NAME":"STARLINK-37233","OBJECT_ID":"2026-070W","EPOCH":"2026-04-14T06:00:02.000160","MEAN_MOTION":15.90976409,"ECCENTRICITY":0.00011083,"INCLINATION":53.1587,"RA_OF_ASC_NODE":206.1178,"ARG_OF_PERICENTER":82.2583,"MEAN_ANOMALY":86.8743,"EPHEMERIS_TYPE":0,"CLASSIFICATION_TYPE":"U","NORAD_CAT_ID":68562,"ELEMENT_SET_NO":999,"REV_AT_EPOCH":309,"BSTAR":-0.0043969636,"MEAN_MOTION_DOT":-0.01413128,"MEAN_MOTION_DDOT":0.00056817581},{"OBJECT_NAME":"STARLINK-36238","OBJECT_ID":"2026-070X","EPOCH":"2026-04-14T06:00:02.000160","MEAN_MOTION":15.9090646,"ECCENTRICITY":0.00010176,"INCLINATION":53.1586,"RA_OF_ASC_NODE":206.1252,"ARG_OF_PERICENTER":84.8041,"MEAN_ANOMALY":80.6725,"EPHEMERIS_TYPE":0,"CLASSIFICATION_TYPE":"U","NORAD_CAT_ID":68563,"ELEMENT_SET_NO":999,"REV_AT_EPOCH":304,"BSTAR":-0.004402577,"MEAN_MOTION_DOT":-0.01409894,"MEAN_MOTION_DDOT":0.00056542628},{"OBJECT_NAME":"STARLINK-37008","OBJECT_ID":"2026-070Y","EPOCH":"2026-04-14T06:00:02.000160","MEAN_MOTION":15.91044732,"ECCENTRICITY":0.00010062,"INCLINATION":53.1586,"RA_OF_ASC_NODE":206.1101,"ARG_OF_PERICENTER":85.6223,"MEAN_ANOMALY":87.2617,"EPHEMERIS_TYPE":0,"CLASSIFICATION_TYPE":"U","NORAD_CAT_ID":68564,"ELEMENT_SET_NO":999,"REV_AT_EPOCH":309,"BSTAR":-0.0044027033,"MEAN_MOTION_DOT":-0.01419844,"MEAN_MOTION_DDOT":0.00057348994},{"OBJECT_NAME":"STARLINK-37161","OBJECT_ID":"2026-070Z","EPOCH":"2026-04-14T06:00:02.000160","MEAN_MOTION":15.91118204,"ECCENTRICITY":0.00010517,"INCLINATION":53.1583,"RA_OF_ASC_NODE":206.1022,"ARG_OF_PERICENTER":82.7341,"MEAN_ANOMALY":93.7842,"EPHEMERIS_TYPE":0,"CLASSIFICATION_TYPE":"U","NORAD_CAT_ID":68565,"ELEMENT_SET_NO":999,"REV_AT_EPOCH":309,"BSTAR":-0.004400983,"MEAN_MOTION_DOT":-0.01424602,"MEAN_MOTION_DDOT":0.00057740981},{"OBJECT_NAME":"STARLINK-37212","OBJECT_ID":"2026-070AA","EPOCH":"2026-04-14T06:00:02.000160","MEAN_MOTION":15.91217984,"ECCENTRICITY":0.00010291,"INCLINATION":53.1586,"RA_OF_ASC_NODE":206.0958,"ARG_OF_PERICENTER":84.4027,"MEAN_ANOMALY":95.0242,"EPHEMERIS_TYPE":0,"CLASSIFICATION_TYPE":"U","NORAD_CAT_ID":68566,"ELEMENT_SET_NO":999,"REV_AT_EPOCH":309,"BSTAR":-0.0043633912,"MEAN_MOTION_DOT":-0.01419751,"MEAN_MOTION_DDOT":0.00057437439},{"OBJECT_NAME":"STARLINK-37261","OBJECT_ID":"2026-070AB","EPOCH":"2026-04-14T06:00:02.000160","MEAN_MOTION":15.9127556,"ECCENTRICITY":0.00010291,"INCLINATION":53.1586,"RA_OF_ASC_NODE":206.0877,"ARG_OF_PERICENTER":84.4526,"MEAN_ANOMALY":99.0029,"EPHEMERIS_TYPE":0,"CLASSIFICATION_TYPE":"U","NORAD_CAT_ID":68567,"ELEMENT_SET_NO":999,"REV_AT_EPOCH":309,"BSTAR":-0.004378063,"MEAN_MOTION_DOT":-0.0142864,"MEAN_MOTION_DDOT":0.00058127903},{"OBJECT_NAME":"STARLINK-37283","OBJECT_ID":"2026-070AC","EPOCH":"2026-04-14T06:00:02.000160","MEAN_MOTION":15.83559679,"ECCENTRICITY":0.00010401,"INCLINATION":53.1593,"RA_OF_ASC_NODE":206.3762,"ARG_OF_PERICENTER":76.305,"MEAN_ANOMALY":328.3164,"EPHEMERIS_TYPE":0,"CLASSIFICATION_TYPE":"U","NORAD_CAT_ID":68568,"ELEMENT_SET_NO":999,"REV_AT_EPOCH":309,"BSTAR":-0.0081046271,"MEAN_MOTION_DOT":-0.01589671,"MEAN_MOTION_DDOT":0},{"OBJECT_NAME":"STARLINK-37256","OBJECT_ID":"2026-070AD","EPOCH":"2026-04-14T06:00:02.000160","MEAN_MOTION":15.83888231,"ECCENTRICITY":7.975e-5,"INCLINATION":53.1589,"RA_OF_ASC_NODE":206.3869,"ARG_OF_PERICENTER":92.7733,"MEAN_ANOMALY":306.5116,"EPHEMERIS_TYPE":0,"CLASSIFICATION_TYPE":"U","NORAD_CAT_ID":68569,"ELEMENT_SET_NO":999,"REV_AT_EPOCH":309,"BSTAR":-0.0077859096,"MEAN_MOTION_DOT":-0.01556007,"MEAN_MOTION_DDOT":0}]
