STARLINK-37255          
1 68554U 26070N   26104.25002315 -.01153888  00000+0 -41936-2 0  9994
2 68554  53.1582 206.1784 0000861  85.7848  54.0549 15.90371448  3098
STARLINK-37146          
1 68555U 26070P   26104.25002315 -.01118794  00000+0 -40867-2 0  9994
2 68555  53.1584 206.1933 0000829  82.9399  49.7435 15.90191985  3092
STARLINK-37144          
1 68556U 26070Q   26104.25002315 -.01162591  00000+0 -42144-2 0  9999
2 68556  53.1586 206.1621 0000543 107.8703  39.7478 15.90445500  3099
STARLINK-37210          
1 68557U 26070R   26104.25002315 -.01189172  00000+0 -43238-2 0  9999
2 68557  53.1585 206.1707 0000833  85.6518  58.2554 15.90446512  3098
STARLINK-37227          
1 68558U 26070S   26104.25002315 -.01219741  00000+0 -44142-2 0  9991
2 68558  53.1582 206.1548 0000851  86.6239  64.5233 15.90609616  3090
STARLINK-37294          
1 68559U 26070T   26104.25002315 -.01401887  55832-3 -44304-2 0  9993
2 68559  53.1586 206.1469 0001001  81.3294  73.7243 15.90670639  3094
STARLINK-37291          
1 68560U 26070U   26104.25002315 -.01407665  56295-3 -44311-2 0  9997
2 68560  53.1585 206.1396 0000971 105.3344  53.2609 15.90749305  3098
STARLINK-37114          
1 68561U 26070V   26104.25002315 -.01408064  56368-3 -44141-2 0  9994
2 68561  53.1585 206.1326 0000973  85.3648  76.6066 15.90830036  3096
STARLINK-37233          
1 68562U 26070W   26104.25002315 -.01413128  56818-3 -43970-2 0  9991
2 68562  53.1587 206.1178 0001108  82.2583  86.8743 15.90976409  3099
STARLINK-36238          
1 68563U 26070X   26104.25002315 -.01409894  56543-3 -44026-2 0  9995
2 68563  53.1586 206.1252 0001017  84.8041  80.6725 15.90906460  3045
STARLINK-37008          
1 68564U 26070Y   26104.25002315 -.01419844  57349-3 -44027-2 0  9998
2 68564  53.1586 206.1101 0001006  85.6223  87.2617 15.91044732  3092
STARLINK-37161          
1 68565U 26070Z   26104.25002315 -.01424602  57741-3 -44010-2 0  9995
2 68565  53.1583 206.1022 0001051  82.7341  93.7842 15.91118204  3099
STARLINK-37212          
1 68566U 26070AA  26104.25002315 -.01419751  57437-3 -43634-2 0  9998
2 68566  53.1586 206.0958 0001029  84.4027  95.0242 15.91217984  3099
STARLINK-37261          
1 68567U 26070AB  26104.25002315 -.01428640  58128-3 -43781-2 0  9997
2 68567  53.1586 206.0877 0001029  84.4526  99.0029 15.91275560  3095
STARLINK-37283          
1 68568U 26070AC  26104.25002315 -.01589671  00000+0 -81046-2 0  9998
2 68568  53.1593 206.3762 0001040  76.3050 328.3164 15.83559679  3090
STARLINK-37256          
1 68569U 26070AD  26104.25002315 -.01556007  00000+0 -77859-2 0  9993
2 68569  53.1589 206.3869 0000797  92.7733 306.5116 15.83888231  3096
